{"fetched_at":"2026-07-07T18:29:08.171Z","source":"https://celestrak.org/NORAD/elements/gp.php?GROUP=planet&FORMAT=JSON","constellation":"pelican","records":[{"OBJECT_NAME":"PELICAN-1","OBJECT_ID":"2023-174AS","EPOCH":"2026-07-07T05:27:12.727296","CLASSIFICATION_TYPE":"U","MEAN_MOTION":15.72538596,"ECCENTRICITY":0.000475,"INCLINATION":97.3953,"RA_OF_ASC_NODE":289.8222,"ARG_OF_PERICENTER":148.5978,"MEAN_ANOMALY":211.557,"EPHEMERIS_TYPE":0,"NORAD_CAT_ID":58296,"ELEMENT_SET_NO":999,"REV_AT_EPOCH":14931,"BSTAR":0.000054763,"MEAN_MOTION_DOT":0.00007175,"MEAN_MOTION_DDOT":0},{"OBJECT_NAME":"PELICAN-2","OBJECT_ID":"2025-009Y","EPOCH":"2026-07-06T17:24:19.884960","CLASSIFICATION_TYPE":"U","MEAN_MOTION":15.40647671,"ECCENTRICITY":0.0001802,"INCLINATION":97.2272,"RA_OF_ASC_NODE":278.3913,"ARG_OF_PERICENTER":132.2744,"MEAN_ANOMALY":227.8656,"EPHEMERIS_TYPE":0,"NORAD_CAT_ID":62631,"ELEMENT_SET_NO":999,"REV_AT_EPOCH":8256,"BSTAR":0.0000028267,"MEAN_MOTION_DOT":3.5e-7,"MEAN_MOTION_DDOT":0},{"OBJECT_NAME":"PELICAN-3","OBJECT_ID":"2025-188A","EPOCH":"2026-07-06T17:23:48.258240","CLASSIFICATION_TYPE":"U","MEAN_MOTION":15.40948044,"ECCENTRICITY":0.0001656,"INCLINATION":97.1977,"RA_OF_ASC_NODE":263.5832,"ARG_OF_PERICENTER":106.3145,"MEAN_ANOMALY":253.8284,"EPHEMERIS_TYPE":0,"NORAD_CAT_ID":65315,"ELEMENT_SET_NO":999,"REV_AT_EPOCH":4832,"BSTAR":0.00015759,"MEAN_MOTION_DOT":0.00006403,"MEAN_MOTION_DDOT":0},{"OBJECT_NAME":"PELICAN-4","OBJECT_ID":"2025-188B","EPOCH":"2026-07-06T16:15:16.826112","CLASSIFICATION_TYPE":"U","MEAN_MOTION":15.40914436,"ECCENTRICITY":0.0000847,"INCLINATION":97.1992,"RA_OF_ASC_NODE":263.6911,"ARG_OF_PERICENTER":99.4399,"MEAN_ANOMALY":260.6944,"EPHEMERIS_TYPE":0,"NORAD_CAT_ID":65316,"ELEMENT_SET_NO":999,"REV_AT_EPOCH":4831,"BSTAR":0.00016525,"MEAN_MOTION_DOT":0.00006711,"MEAN_MOTION_DDOT":0},{"OBJECT_NAME":"PELICAN-5","OBJECT_ID":"2025-276B","EPOCH":"2026-07-07T04:57:25.006752","CLASSIFICATION_TYPE":"U","MEAN_MOTION":15.31667108,"ECCENTRICITY":0.0002523,"INCLINATION":97.4125,"RA_OF_ASC_NODE":263.1681,"ARG_OF_PERICENTER":349.8417,"MEAN_ANOMALY":10.2773,"EPHEMERIS_TYPE":0,"NORAD_CAT_ID":66667,"ELEMENT_SET_NO":999,"REV_AT_EPOCH":3358,"BSTAR":0.00013855,"MEAN_MOTION_DOT":0.00004158,"MEAN_MOTION_DDOT":0},{"OBJECT_NAME":"PELICAN-6","OBJECT_ID":"2025-276AP","EPOCH":"2026-07-07T04:50:34.707840","CLASSIFICATION_TYPE":"U","MEAN_MOTION":15.31057046,"ECCENTRICITY":0.0002585,"INCLINATION":97.3772,"RA_OF_ASC_NODE":263.2256,"ARG_OF_PERICENTER":55.7977,"MEAN_ANOMALY":304.3509,"EPHEMERIS_TYPE":0,"NORAD_CAT_ID":66703,"ELEMENT_SET_NO":999,"REV_AT_EPOCH":3359,"BSTAR":0.00017061,"MEAN_MOTION_DOT":0.00005041,"MEAN_MOTION_DDOT":0},{"OBJECT_NAME":"PELICAN-7","OBJECT_ID":"2026-100AP","EPOCH":"2026-07-07T04:21:27.660096","CLASSIFICATION_TYPE":"U","MEAN_MOTION":15.23394443,"ECCENTRICITY":0.0003552,"INCLINATION":97.3912,"RA_OF_ASC_NODE":85.7529,"ARG_OF_PERICENTER":90.4078,"MEAN_ANOMALY":269.7566,"EPHEMERIS_TYPE":0,"NORAD_CAT_ID":69017,"ELEMENT_SET_NO":999,"REV_AT_EPOCH":985,"BSTAR":0.000060535,"MEAN_MOTION_DOT":0.0000137,"MEAN_MOTION_DDOT":0},{"OBJECT_NAME":"PELICAN-9","OBJECT_ID":"2026-100AR","EPOCH":"2026-07-07T03:36:59.753376","CLASSIFICATION_TYPE":"U","MEAN_MOTION":15.21662818,"ECCENTRICITY":0.0002778,"INCLINATION":97.3812,"RA_OF_ASC_NODE":85.5795,"ARG_OF_PERICENTER":7.1222,"MEAN_ANOMALY":353.0053,"EPHEMERIS_TYPE":0,"NORAD_CAT_ID":69019,"ELEMENT_SET_NO":999,"REV_AT_EPOCH":984,"BSTAR":0.00007792,"MEAN_MOTION_DOT":0.00001693,"MEAN_MOTION_DDOT":0}]}
